[
  {
    "OBJECT_NAME": "STARLINK-2393",
    "OBJECT_ID": "21018AB",
    "EPOCH": "2025-11-11T08:00:03.000384",
    "MEAN_MOTION": 15.6819663,
    "ECCENTRICITY": 0.0003884,
    "INCLINATION": 53.0528,
    "RA_OF_ASC_NODE": 63.2066,
    "ARG_OF_PERICENTER": 352.1604,
    "MEAN_ANOMALY": 19.5733,
    "EPHEMERIS_TYPE": 0,
    "CLASSIFICATION_TYPE": "U",
    "NORAD_CAT_ID": 47812,
    "ELEMENT_SET_NO": 999,
    "REV_AT_EPOCH": 586,
    "BSTAR": 0.0023508,
    "MEAN_MOTION_DOT": 0.00276213,
    "MEAN_MOTION_DDOT": 0.0,
    "TLE_LINE1": "1 47812U 21018AB  25315.33336806  .00276213  00000+0  23508-2 0  9992",
    "TLE_LINE2": "2 47812  53.0528  63.2066 0003884 352.1604  19.5733 15.68196630  5866",
    "COMMENT": "Grouped by shell and plane from TLE"
  },
  {
    "OBJECT_NAME": "STARLINK-31060",
    "OBJECT_ID": "24011T",
    "EPOCH": "2025-11-11T08:00:03.000384",
    "MEAN_MOTION": 15.83160557,
    "ECCENTRICITY": 0.001777,
    "INCLINATION": 53.144,
    "RA_OF_ASC_NODE": 63.9719,
    "ARG_OF_PERICENTER": 330.855,
    "MEAN_ANOMALY": 186.2229,
    "EPHEMERIS_TYPE": 0,
    "CLASSIFICATION_TYPE": "U",
    "NORAD_CAT_ID": 58782,
    "ELEMENT_SET_NO": 999,
    "REV_AT_EPOCH": 578,
    "BSTAR": 0.0015253,
    "MEAN_MOTION_DOT": 0.00351571,
    "MEAN_MOTION_DDOT": 0.0,
    "TLE_LINE1": "1 58782U 24011T   25315.33336806  .00351571  00000+0  15253-2 0  9995",
    "TLE_LINE2": "2 58782  53.1440  63.9719 0017770 330.8550 186.2229 15.83160557  5781",
    "COMMENT": "Grouped by shell and plane from TLE"
  },
  {
    "OBJECT_NAME": "STARLINK-11098 [DTC]",
    "OBJECT_ID": "24091H",
    "EPOCH": "2025-11-11T07:47:30.417504",
    "MEAN_MOTION": 15.69771719,
    "ECCENTRICITY": 0.0001025,
    "INCLINATION": 53.1577,
    "RA_OF_ASC_NODE": 69.6966,
    "ARG_OF_PERICENTER": 39.9044,
    "MEAN_ANOMALY": 320.2049,
    "EPHEMERIS_TYPE": 0,
    "CLASSIFICATION_TYPE": "U",
    "NORAD_CAT_ID": 59760,
    "ELEMENT_SET_NO": 999,
    "REV_AT_EPOCH": 8692,
    "BSTAR": 0.0,
    "MEAN_MOTION_DOT": -9.702e-05,
    "MEAN_MOTION_DDOT": 0.0,
    "TLE_LINE1": "1 59760U 24091H   25315.32465761 -.00009702  00000+0 -75119-4 0  9999",
    "TLE_LINE2": "2 59760  53.1577  69.6966 0001025  39.9044 320.2049 15.69771719 86924",
    "COMMENT": "Grouped by shell and plane from TLE"
  },
  {
    "OBJECT_NAME": "STARLINK-11110 [DTC]",
    "OBJECT_ID": "24091K",
    "EPOCH": "2025-11-11T07:33:24.818976",
    "MEAN_MOTION": 15.69544016,
    "ECCENTRICITY": 0.0001807,
    "INCLINATION": 53.1586,
    "RA_OF_ASC_NODE": 69.6317,
    "ARG_OF_PERICENTER": 102.2584,
    "MEAN_ANOMALY": 257.8636,
    "EPHEMERIS_TYPE": 0,
    "CLASSIFICATION_TYPE": "U",
    "NORAD_CAT_ID": 59762,
    "ELEMENT_SET_NO": 999,
    "REV_AT_EPOCH": 8692,
    "BSTAR": 0.00029272,
    "MEAN_MOTION_DOT": 0.0003478,
    "MEAN_MOTION_DDOT": 0.0,
    "TLE_LINE1": "1 59762U 24091K   25315.31487059  .00034780  00000+0  29272-3 0  9994",
    "TLE_LINE2": "2 59762  53.1586  69.6317 0001807 102.2584 257.8636 15.69544016 86922",
    "COMMENT": "Grouped by shell and plane from TLE"
  },
  {
    "OBJECT_NAME": "STARLINK-11104 [DTC]",
    "OBJECT_ID": "24091L",
    "EPOCH": "2025-11-11T07:26:19.656672",
    "MEAN_MOTION": 15.69671494,
    "ECCENTRICITY": 0.0001494,
    "INCLINATION": 53.1591,
    "RA_OF_ASC_NODE": 69.5982,
    "ARG_OF_PERICENTER": 88.3398,
    "MEAN_ANOMALY": 271.7791,
    "EPHEMERIS_TYPE": 0,
    "CLASSIFICATION_TYPE": "U",
    "NORAD_CAT_ID": 59763,
    "ELEMENT_SET_NO": 999,
    "REV_AT_EPOCH": 8692,
    "BSTAR": 7.8979e-05,
    "MEAN_MOTION_DOT": 8.974e-05,
    "MEAN_MOTION_DDOT": 0.0,
    "TLE_LINE1": "1 59763U 24091L   25315.30994973  .00008974  00000+0  78979-4 0  9997",
    "TLE_LINE2": "2 59763  53.1591  69.5982 0001494  88.3398 271.7791 15.69671494 86923",
    "COMMENT": "Grouped by shell and plane from TLE"
  },
  {
    "OBJECT_NAME": "STARLINK-11111 [DTC]",
    "OBJECT_ID": "24091M",
    "EPOCH": "2025-11-11T07:12:10.960704",
    "MEAN_MOTION": 15.69768337,
    "ECCENTRICITY": 9.06e-05,
    "INCLINATION": 53.1552,
    "RA_OF_ASC_NODE": 69.5314,
    "ARG_OF_PERICENTER": 96.4785,
    "MEAN_ANOMALY": 263.6336,
    "EPHEMERIS_TYPE": 0,
    "CLASSIFICATION_TYPE": "U",
    "NORAD_CAT_ID": 59764,
    "ELEMENT_SET_NO": 999,
    "REV_AT_EPOCH": 8692,
    "BSTAR": 0.0,
    "MEAN_MOTION_DOT": -9.621e-05,
    "MEAN_MOTION_DDOT": 0.0,
    "TLE_LINE1": "1 59764U 24091M   25315.30012686 -.00009621  00000+0 -74464-4 0  9997",
    "TLE_LINE2": "2 59764  53.1552  69.5314 0000906  96.4785 263.6336 15.69768337 86925",
    "COMMENT": "Grouped by shell and plane from TLE"
  },
  {
    "OBJECT_NAME": "STARLINK-11106 [DTC]",
    "OBJECT_ID": "24091N",
    "EPOCH": "2025-11-11T07:19:14.808000",
    "MEAN_MOTION": 15.6970885,
    "ECCENTRICITY": 0.0001152,
    "INCLINATION": 53.1578,
    "RA_OF_ASC_NODE": 69.566,
    "ARG_OF_PERICENTER": 65.1756,
    "MEAN_ANOMALY": 294.9381,
    "EPHEMERIS_TYPE": 0,
    "CLASSIFICATION_TYPE": "U",
    "NORAD_CAT_ID": 59765,
    "ELEMENT_SET_NO": 999,
    "REV_AT_EPOCH": 8692,
    "BSTAR": 1.4621000000000001e-05,
    "MEAN_MOTION_DOT": 1.183e-05,
    "MEAN_MOTION_DDOT": 0.0,
    "TLE_LINE1": "1 59765U 24091N   25315.30503250  .00001183  00000+0  14621-4 0  9992",
    "TLE_LINE2": "2 59765  53.1578  69.5660 0001152  65.1756 294.9381 15.69708850 86924",
    "COMMENT": "Grouped by shell and plane from TLE"
  },
  {
    "OBJECT_NAME": "STARLINK-11452 [DTC]",
    "OBJECT_ID": "25004A",
    "EPOCH": "2025-11-11T00:15:09.394560",
    "MEAN_MOTION": 15.7090668,
    "ECCENTRICITY": 0.0001167,
    "INCLINATION": 43.0008,
    "RA_OF_ASC_NODE": 66.0677,
    "ARG_OF_PERICENTER": 297.3432,
    "MEAN_ANOMALY": 62.7317,
    "EPHEMERIS_TYPE": 0,
    "CLASSIFICATION_TYPE": "U",
    "NORAD_CAT_ID": 62511,
    "ELEMENT_SET_NO": 999,
    "REV_AT_EPOCH": 4946,
    "BSTAR": 0.0020976000000000002,
    "MEAN_MOTION_DOT": 0.002787,
    "MEAN_MOTION_DDOT": 0.0,
    "TLE_LINE1": "1 62511U 25004A   25315.01052540  .00278700  00000+0  20976-2 0  9998",
    "TLE_LINE2": "2 62511  43.0008  66.0677 0001167 297.3432  62.7317 15.70906680 49460",
    "COMMENT": "Grouped by shell and plane from TLE"
  },
  {
    "OBJECT_NAME": "STARLINK-11443 [DTC]",
    "OBJECT_ID": "25004B",
    "EPOCH": "2025-11-11T07:07:15.728448",
    "MEAN_MOTION": 15.71044446,
    "ECCENTRICITY": 0.0002381,
    "INCLINATION": 42.9999,
    "RA_OF_ASC_NODE": 64.7914,
    "ARG_OF_PERICENTER": 245.3047,
    "MEAN_ANOMALY": 114.7573,
    "EPHEMERIS_TYPE": 0,
    "CLASSIFICATION_TYPE": "U",
    "NORAD_CAT_ID": 62512,
    "ELEMENT_SET_NO": 999,
    "REV_AT_EPOCH": 4858,
    "BSTAR": 0.0027668,
    "MEAN_MOTION_DOT": 0.00374224,
    "MEAN_MOTION_DDOT": 0.0,
    "TLE_LINE1": "1 62512U 25004B   25315.29670982  .00374224  00000+0  27668-2 0  9998",
    "TLE_LINE2": "2 62512  42.9999  64.7914 0002381 245.3047 114.7573 15.71044446 48589",
    "COMMENT": "Grouped by shell and plane from TLE"
  },
  {
    "OBJECT_NAME": "STARLINK-11440 [DTC]",
    "OBJECT_ID": "25004C",
    "EPOCH": "2025-11-11T00:38:05.825184",
    "MEAN_MOTION": 15.70922348,
    "ECCENTRICITY": 4.48e-05,
    "INCLINATION": 42.9995,
    "RA_OF_ASC_NODE": 66.1953,
    "ARG_OF_PERICENTER": 330.4985,
    "MEAN_ANOMALY": 29.5857,
    "EPHEMERIS_TYPE": 0,
    "CLASSIFICATION_TYPE": "U",
    "NORAD_CAT_ID": 62513,
    "ELEMENT_SET_NO": 999,
    "REV_AT_EPOCH": 4854,
    "BSTAR": 0.0021725,
    "MEAN_MOTION_DOT": 0.00289243,
    "MEAN_MOTION_DDOT": 0.0,
    "TLE_LINE1": "1 62513U 25004C   25315.02645631  .00289243  00000+0  21725-2 0  9997",
    "TLE_LINE2": "2 62513  42.9995  66.1953 0000448 330.4985  29.5857 15.70922348 48543",
    "COMMENT": "Grouped by shell and plane from TLE"
  },
  {
    "OBJECT_NAME": "STARLINK-11514 [DTC]",
    "OBJECT_ID": "25004D",
    "EPOCH": "2025-11-11T07:46:36.661152",
    "MEAN_MOTION": 15.7102017,
    "ECCENTRICITY": 0.0001607,
    "INCLINATION": 42.9988,
    "RA_OF_ASC_NODE": 64.1146,
    "ARG_OF_PERICENTER": 247.4131,
    "MEAN_ANOMALY": 112.6566,
    "EPHEMERIS_TYPE": 0,
    "CLASSIFICATION_TYPE": "U",
    "NORAD_CAT_ID": 62514,
    "ELEMENT_SET_NO": 999,
    "REV_AT_EPOCH": 4859,
    "BSTAR": 0.0022021,
    "MEAN_MOTION_DOT": 0.00294583,
    "MEAN_MOTION_DDOT": 0.0,
    "TLE_LINE1": "1 62514U 25004D   25315.32403543  .00294583  00000+0  22021-2 0  9998",
    "TLE_LINE2": "2 62514  42.9988  64.1146 0001607 247.4131 112.6566 15.71020170 48595",
    "COMMENT": "Grouped by shell and plane from TLE"
  },
  {
    "OBJECT_NAME": "STARLINK-11508 [DTC]",
    "OBJECT_ID": "25004E",
    "EPOCH": "2025-11-10T14:50:30.121152",
    "MEAN_MOTION": 15.70922645,
    "ECCENTRICITY": 0.0001656,
    "INCLINATION": 42.999,
    "RA_OF_ASC_NODE": 68.2793,
    "ARG_OF_PERICENTER": 279.0478,
    "MEAN_ANOMALY": 81.0202,
    "EPHEMERIS_TYPE": 0,
    "CLASSIFICATION_TYPE": "U",
    "NORAD_CAT_ID": 62515,
    "ELEMENT_SET_NO": 999,
    "REV_AT_EPOCH": 4848,
    "BSTAR": 0.0017973,
    "MEAN_MOTION_DOT": 0.00237717,
    "MEAN_MOTION_DDOT": 0.0,
    "TLE_LINE1": "1 62515U 25004E   25314.61840418  .00237717  00000+0  17973-2 0  9992",
    "TLE_LINE2": "2 62515  42.9990  68.2793 0001656 279.0478  81.0202 15.70922645 48482",
    "COMMENT": "Grouped by shell and plane from TLE"
  },
  {
    "OBJECT_NAME": "STARLINK-11510 [DTC]",
    "OBJECT_ID": "25004F",
    "EPOCH": "2025-11-11T06:51:58.044672",
    "MEAN_MOTION": 15.70867681,
    "ECCENTRICITY": 0.0002581,
    "INCLINATION": 43.0024,
    "RA_OF_ASC_NODE": 64.704,
    "ARG_OF_PERICENTER": 267.606,
    "MEAN_ANOMALY": 92.4513,
    "EPHEMERIS_TYPE": 0,
    "CLASSIFICATION_TYPE": "U",
    "NORAD_CAT_ID": 62516,
    "ELEMENT_SET_NO": 999,
    "REV_AT_EPOCH": 4858,
    "BSTAR": 0.0020538,
    "MEAN_MOTION_DOT": 0.00272222,
    "MEAN_MOTION_DDOT": 0.0,
    "TLE_LINE1": "1 62516U 25004F   25315.28608848  .00272222  00000+0  20538-2 0  9997",
    "TLE_LINE2": "2 62516  43.0024  64.7040 0002581 267.6060  92.4513 15.70867681 48587",
    "COMMENT": "Grouped by shell and plane from TLE"
  }
]